[{"OBJECT_NAME":"STARLINK-36073","OBJECT_ID":"2025-280Z","EPOCH":"2026-03-09T22:45:29.195712","MEAN_MOTION":14.98332199,"ECCENTRICITY":0.00021093,"INCLINATION":70.0025,"RA_OF_ASC_NODE":333.8389,"ARG_OF_PERICENTER":275.8635,"MEAN_ANOMALY":84.2284,"EPHEMERIS_TYPE":0,"CLASSIFICATION_TYPE":"U","NORAD_CAT_ID":66844,"ELEMENT_SET_NO":999,"REV_AT_EPOCH":1608,"BSTAR":0.00024127367,"MEAN_MOTION_DOT":2.787e-5,"MEAN_MOTION_DDOT":0},{"OBJECT_NAME":"CZ-4B DEB","OBJECT_ID":"2006-046E","EPOCH":"2026-03-09T15:05:34.126944","MEAN_MOTION":15.05038248,"ECCENTRICITY":0.0035443,"INCLINATION":97.6504,"RA_OF_ASC_NODE":126.4986,"ARG_OF_PERICENTER":210.976,"MEAN_ANOMALY":148.9377,"EPHEMERIS_TYPE":0,"CLASSIFICATION_TYPE":"U","NORAD_CAT_ID":29509,"ELEMENT_SET_NO":999,"REV_AT_EPOCH":5351,"BSTAR":0.00027248,"MEAN_MOTION_DOT":3.86e-5,"MEAN_MOTION_DDOT":0}]
